ISS (ZARYA)             
1 25544U 98067A   26063.41494957  .00010377  00000+0  19994-3 0  9992
2 25544  51.6315  98.4344 0008199 155.9283 204.2090 15.48440114555515
POISK                   
1 36086U 09060A   26063.41494957  .00010377  00000+0  19994-3 0  9990
2 36086  51.6315  98.4344 0008199 155.9283 204.2090 15.48440114555372
CSS (TIANHE)            
1 48274U 21035A   26063.53175524  .00024935  00000+0  29808-3 0  9997
2 48274  41.4656 239.5395 0006880 242.0703 117.9439 15.60393731276804
ISS (NAUKA)             
1 49044U 21066A   26063.41494957  .00010377  00000+0  19994-3 0  9998
2 49044  51.6315  98.4344 0008199 155.9283 204.2090 15.48440114555392
FREGAT DEB              
1 49271U 11037PF  26062.07347650  .00033502  00000+0  49339-1 0  9994
2 49271  51.6509 320.5956 0955180  44.2014 323.1255 12.39774562211870
CSS (WENTIAN)           
1 53239U 22085A   26063.53175524  .00024935  00000+0  29808-3 0  9990
2 53239  41.4656 239.5395 0006880 242.0703 117.9439 15.60393731276441
CSS (MENGTIAN)          
1 54216U 22143A   26063.53175524  .00024935  00000+0  29808-3 0  9991
2 54216  41.4656 239.5395 0006880 242.0703 117.9439 15.60393731276414
PROGRESS-MS 31          
1 64751U 25146A   26063.41494957  .00010377  00000+0  19994-3 0  9993
2 64751  51.6315  98.4344 0008199 155.9283 204.2090 15.48440114555417
TIANZHOU-9              
1 64786U 25149A   26063.53175524  .00024935  00000+0  29808-3 0  9993
2 64786  41.4656 239.5395 0006880 242.0703 117.9439 15.60393731276428
PROGRESS-MS 32          
1 65586U 25204A   26063.41494957  .00010377  00000+0  19994-3 0  9995
2 65586  51.6315  98.4344 0008199 155.9283 204.2090 15.48440114555470
CYGNUS NG-23            
1 65616U 25208A   26063.41494957  .00010377  00000+0  19994-3 0  9993
2 65616  51.6315  98.4344 0008199 155.9283 204.2090 15.48440114555496
ISS OBJECT XK           
1 65731U 98067XK  26063.30460368  .01169756  80724-3  14637-2 0  9991
2 65731  51.6153  75.0298 0005503  61.4486 298.7080 16.07142396 26032
