CCSDS_OMM_VERS = 2.0
CREATION_DATE  = 
ORIGINATOR     = 

OBJECT_NAME    = ISS (ZARYA)
OBJECT_ID      = 1998-067A
CENTER_NAME    = EARTH
REF_FRAME      = TEME
TIME_SYSTEM    = UTC
MEAN_ELEMENT_THEORY = SGP/SGP4

EPOCH          = 2026-03-04T09:57:31.642848
MEAN_MOTION    = 15.48440114
ECCENTRICITY   = .0008199
INCLINATION    = 51.6315
RA_OF_ASC_NODE = 98.4344
ARG_OF_PERICENTER = 155.9283
MEAN_ANOMALY   = 204.2090

EPHEMERIS_TYPE = 0
CLASSIFICATION_TYPE = U
NORAD_CAT_ID   = 25544
ELEMENT_SET_NO = 999
REV_AT_EPOCH   = 55551
BSTAR          = .19994E-3
MEAN_MOTION_DOT = .10377E-3
MEAN_MOTION_DDOT = 0

CCSDS_OMM_VERS = 2.0
CREATION_DATE  = 
ORIGINATOR     = 

OBJECT_NAME    = POISK
OBJECT_ID      = 2009-060A
CENTER_NAME    = EARTH
REF_FRAME      = TEME
TIME_SYSTEM    = UTC
MEAN_ELEMENT_THEORY = SGP/SGP4

EPOCH          = 2026-03-04T09:57:31.642848
MEAN_MOTION    = 15.48440114
ECCENTRICITY   = .0008199
INCLINATION    = 51.6315
RA_OF_ASC_NODE = 98.4344
ARG_OF_PERICENTER = 155.9283
MEAN_ANOMALY   = 204.2090

EPHEMERIS_TYPE = 0
CLASSIFICATION_TYPE = U
NORAD_CAT_ID   = 36086
ELEMENT_SET_NO = 999
REV_AT_EPOCH   = 55537
BSTAR          = .19994E-3
MEAN_MOTION_DOT = .10377E-3
MEAN_MOTION_DDOT = 0

CCSDS_OMM_VERS = 2.0
CREATION_DATE  = 
ORIGINATOR     = 

OBJECT_NAME    = CSS (TIANHE)
OBJECT_ID      = 2021-035A
CENTER_NAME    = EARTH
REF_FRAME      = TEME
TIME_SYSTEM    = UTC
MEAN_ELEMENT_THEORY = SGP/SGP4

EPOCH          = 2026-03-04T12:45:43.652736
MEAN_MOTION    = 15.60393731
ECCENTRICITY   = .000688
INCLINATION    = 41.4656
RA_OF_ASC_NODE = 239.5395
ARG_OF_PERICENTER = 242.0703
MEAN_ANOMALY   = 117.9439

EPHEMERIS_TYPE = 0
CLASSIFICATION_TYPE = U
NORAD_CAT_ID   = 48274
ELEMENT_SET_NO = 999
REV_AT_EPOCH   = 27680
BSTAR          = .29808E-3
MEAN_MOTION_DOT = .24935E-3
MEAN_MOTION_DDOT = 0

CCSDS_OMM_VERS = 2.0
CREATION_DATE  = 
ORIGINATOR     = 

OBJECT_NAME    = ISS (NAUKA)
OBJECT_ID      = 2021-066A
CENTER_NAME    = EARTH
REF_FRAME      = TEME
TIME_SYSTEM    = UTC
MEAN_ELEMENT_THEORY = SGP/SGP4

EPOCH          = 2026-03-04T09:57:31.642848
MEAN_MOTION    = 15.48440114
ECCENTRICITY   = .0008199
INCLINATION    = 51.6315
RA_OF_ASC_NODE = 98.4344
ARG_OF_PERICENTER = 155.9283
MEAN_ANOMALY   = 204.2090

EPHEMERIS_TYPE = 0
CLASSIFICATION_TYPE = U
NORAD_CAT_ID   = 49044
ELEMENT_SET_NO = 999
REV_AT_EPOCH   = 55539
BSTAR          = .19994E-3
MEAN_MOTION_DOT = .10377E-3
MEAN_MOTION_DDOT = 0

CCSDS_OMM_VERS = 2.0
CREATION_DATE  = 
ORIGINATOR     = 

OBJECT_NAME    = FREGAT DEB
OBJECT_ID      = 2011-037PF
CENTER_NAME    = EARTH
REF_FRAME      = TEME
TIME_SYSTEM    = UTC
MEAN_ELEMENT_THEORY = SGP/SGP4

EPOCH          = 2026-03-03T01:45:48.369600
MEAN_MOTION    = 12.39774562
ECCENTRICITY   = .09551804
INCLINATION    = 51.6509
RA_OF_ASC_NODE = 320.5956
ARG_OF_PERICENTER = 44.2014
MEAN_ANOMALY   = 323.1255

EPHEMERIS_TYPE = 0
CLASSIFICATION_TYPE = U
NORAD_CAT_ID   = 49271
ELEMENT_SET_NO = 999
REV_AT_EPOCH   = 21187
BSTAR          = .49338911E-1
MEAN_MOTION_DOT = .33502E-3
MEAN_MOTION_DDOT = 0

CCSDS_OMM_VERS = 2.0
CREATION_DATE  = 
ORIGINATOR     = 

OBJECT_NAME    = CSS (WENTIAN)
OBJECT_ID      = 2022-085A
CENTER_NAME    = EARTH
REF_FRAME      = TEME
TIME_SYSTEM    = UTC
MEAN_ELEMENT_THEORY = SGP/SGP4

EPOCH          = 2026-03-04T12:45:43.652736
MEAN_MOTION    = 15.60393731
ECCENTRICITY   = .000688
INCLINATION    = 41.4656
RA_OF_ASC_NODE = 239.5395
ARG_OF_PERICENTER = 242.0703
MEAN_ANOMALY   = 117.9439

EPHEMERIS_TYPE = 0
CLASSIFICATION_TYPE = U
NORAD_CAT_ID   = 53239
ELEMENT_SET_NO = 999
REV_AT_EPOCH   = 27644
BSTAR          = .29808E-3
MEAN_MOTION_DOT = .24935E-3
MEAN_MOTION_DDOT = 0

CCSDS_OMM_VERS = 2.0
CREATION_DATE  = 
ORIGINATOR     = 

OBJECT_NAME    = CSS (MENGTIAN)
OBJECT_ID      = 2022-143A
CENTER_NAME    = EARTH
REF_FRAME      = TEME
TIME_SYSTEM    = UTC
MEAN_ELEMENT_THEORY = SGP/SGP4

EPOCH          = 2026-03-04T12:45:43.652736
MEAN_MOTION    = 15.60393731
ECCENTRICITY   = .000688
INCLINATION    = 41.4656
RA_OF_ASC_NODE = 239.5395
ARG_OF_PERICENTER = 242.0703
MEAN_ANOMALY   = 117.9439

EPHEMERIS_TYPE = 0
CLASSIFICATION_TYPE = U
NORAD_CAT_ID   = 54216
ELEMENT_SET_NO = 999
REV_AT_EPOCH   = 27641
BSTAR          = .29808E-3
MEAN_MOTION_DOT = .24935E-3
MEAN_MOTION_DDOT = 0

CCSDS_OMM_VERS = 2.0
CREATION_DATE  = 
ORIGINATOR     = 

OBJECT_NAME    = PROGRESS-MS 31
OBJECT_ID      = 2025-146A
CENTER_NAME    = EARTH
REF_FRAME      = TEME
TIME_SYSTEM    = UTC
MEAN_ELEMENT_THEORY = SGP/SGP4

EPOCH          = 2026-03-04T09:57:31.642848
MEAN_MOTION    = 15.48440114
ECCENTRICITY   = .0008199
INCLINATION    = 51.6315
RA_OF_ASC_NODE = 98.4344
ARG_OF_PERICENTER = 155.9283
MEAN_ANOMALY   = 204.2090

EPHEMERIS_TYPE = 0
CLASSIFICATION_TYPE = U
NORAD_CAT_ID   = 64751
ELEMENT_SET_NO = 999
REV_AT_EPOCH   = 55541
BSTAR          = .19994E-3
MEAN_MOTION_DOT = .10377E-3
MEAN_MOTION_DDOT = 0

CCSDS_OMM_VERS = 2.0
CREATION_DATE  = 
ORIGINATOR     = 

OBJECT_NAME    = TIANZHOU-9
OBJECT_ID      = 2025-149A
CENTER_NAME    = EARTH
REF_FRAME      = TEME
TIME_SYSTEM    = UTC
MEAN_ELEMENT_THEORY = SGP/SGP4

EPOCH          = 2026-03-04T12:45:43.652736
MEAN_MOTION    = 15.60393731
ECCENTRICITY   = .000688
INCLINATION    = 41.4656
RA_OF_ASC_NODE = 239.5395
ARG_OF_PERICENTER = 242.0703
MEAN_ANOMALY   = 117.9439

EPHEMERIS_TYPE = 0
CLASSIFICATION_TYPE = U
NORAD_CAT_ID   = 64786
ELEMENT_SET_NO = 999
REV_AT_EPOCH   = 27642
BSTAR          = .29808E-3
MEAN_MOTION_DOT = .24935E-3
MEAN_MOTION_DDOT = 0

CCSDS_OMM_VERS = 2.0
CREATION_DATE  = 
ORIGINATOR     = 

OBJECT_NAME    = PROGRESS-MS 32
OBJECT_ID      = 2025-204A
CENTER_NAME    = EARTH
REF_FRAME      = TEME
TIME_SYSTEM    = UTC
MEAN_ELEMENT_THEORY = SGP/SGP4

EPOCH          = 2026-03-04T09:57:31.642848
MEAN_MOTION    = 15.48440114
ECCENTRICITY   = .0008199
INCLINATION    = 51.6315
RA_OF_ASC_NODE = 98.4344
ARG_OF_PERICENTER = 155.9283
MEAN_ANOMALY   = 204.2090

EPHEMERIS_TYPE = 0
CLASSIFICATION_TYPE = U
NORAD_CAT_ID   = 65586
ELEMENT_SET_NO = 999
REV_AT_EPOCH   = 55547
BSTAR          = .19994E-3
MEAN_MOTION_DOT = .10377E-3
MEAN_MOTION_DDOT = 0

CCSDS_OMM_VERS = 2.0
CREATION_DATE  = 
ORIGINATOR     = 

OBJECT_NAME    = CYGNUS NG-23
OBJECT_ID      = 2025-208A
CENTER_NAME    = EARTH
REF_FRAME      = TEME
TIME_SYSTEM    = UTC
MEAN_ELEMENT_THEORY = SGP/SGP4

EPOCH          = 2026-03-04T09:57:31.642848
MEAN_MOTION    = 15.48440114
ECCENTRICITY   = .0008199
INCLINATION    = 51.6315
RA_OF_ASC_NODE = 98.4344
ARG_OF_PERICENTER = 155.9283
MEAN_ANOMALY   = 204.2090

EPHEMERIS_TYPE = 0
CLASSIFICATION_TYPE = U
NORAD_CAT_ID   = 65616
ELEMENT_SET_NO = 999
REV_AT_EPOCH   = 55549
BSTAR          = .19994E-3
MEAN_MOTION_DOT = .10377E-3
MEAN_MOTION_DDOT = 0

CCSDS_OMM_VERS = 2.0
CREATION_DATE  = 
ORIGINATOR     = 

OBJECT_NAME    = ISS OBJECT XK
OBJECT_ID      = 1998-067XK
CENTER_NAME    = EARTH
REF_FRAME      = TEME
TIME_SYSTEM    = UTC
MEAN_ELEMENT_THEORY = SGP/SGP4

EPOCH          = 2026-03-04T07:18:37.757952
MEAN_MOTION    = 16.07142396
ECCENTRICITY   = .0005503
INCLINATION    = 51.6153
RA_OF_ASC_NODE = 75.0298
ARG_OF_PERICENTER = 61.4486
MEAN_ANOMALY   = 298.7080

EPHEMERIS_TYPE = 0
CLASSIFICATION_TYPE = U
NORAD_CAT_ID   = 65731
ELEMENT_SET_NO = 999
REV_AT_EPOCH   = 2603
BSTAR          = .14637E-2
MEAN_MOTION_DOT = .1169756E-1
MEAN_MOTION_DDOT = .80724E-3

